CCSDS_OMM_VERS = 2.0
CREATION_DATE  = 
ORIGINATOR     = 

OBJECT_NAME    = UNKNOWN
OBJECT_ID      = 
CENTER_NAME    = EARTH
REF_FRAME      = TEME
TIME_SYSTEM    = UTC
MEAN_ELEMENT_THEORY = SGP/SGP4

EPOCH          = 2026-03-23T00:37:11.943552
MEAN_MOTION    = 14.37337780
ECCENTRICITY   = .00024429
INCLINATION    = 86.4017
RA_OF_ASC_NODE = 356.2073
ARG_OF_PERICENTER = 104.0935
MEAN_ANOMALY   = 256.0534

EPHEMERIS_TYPE = 0
CLASSIFICATION_TYPE = U
NORAD_CAT_ID   = 270210
ELEMENT_SET_NO = 999
REV_AT_EPOCH   = 32820
BSTAR          = .20050558E-3
MEAN_MOTION_DOT = .618E-5
MEAN_MOTION_DDOT = 0

CCSDS_OMM_VERS = 2.0
CREATION_DATE  = 
ORIGINATOR     = 

OBJECT_NAME    = UNKNOWN
OBJECT_ID      = 
CENTER_NAME    = EARTH
REF_FRAME      = TEME
TIME_SYSTEM    = UTC
MEAN_ELEMENT_THEORY = SGP/SGP4

EPOCH          = 2026-03-22T03:36:29.321568
MEAN_MOTION    = 12.88824950
ECCENTRICITY   = .02147358
INCLINATION    = 82.4859
RA_OF_ASC_NODE = 224.2757
ARG_OF_PERICENTER = 125.8906
MEAN_ANOMALY   = 236.2346

EPHEMERIS_TYPE = 0
CLASSIFICATION_TYPE = U
NORAD_CAT_ID   = 270211
ELEMENT_SET_NO = 999
REV_AT_EPOCH   = 29656
BSTAR          = -.5721286E-5
MEAN_MOTION_DOT = .12E-6
MEAN_MOTION_DDOT = 0

CCSDS_OMM_VERS = 2.0
CREATION_DATE  = 
ORIGINATOR     = 

OBJECT_NAME    = UNKNOWN
OBJECT_ID      = 
CENTER_NAME    = EARTH
REF_FRAME      = TEME
TIME_SYSTEM    = UTC
MEAN_ELEMENT_THEORY = SGP/SGP4

EPOCH          = 2026-03-23T00:37:42.158496
MEAN_MOTION    = 13.99648731
ECCENTRICITY   = .00101109
INCLINATION    = 82.5561
RA_OF_ASC_NODE = 356.8186
ARG_OF_PERICENTER = 237.2476
MEAN_ANOMALY   = 122.7719

EPHEMERIS_TYPE = 0
CLASSIFICATION_TYPE = U
NORAD_CAT_ID   = 270215
ELEMENT_SET_NO = 999
REV_AT_EPOCH   = 32125
BSTAR          = .32997128E-2
MEAN_MOTION_DOT = .4839E-4
MEAN_MOTION_DDOT = 0

CCSDS_OMM_VERS = 2.0
CREATION_DATE  = 
ORIGINATOR     = 

OBJECT_NAME    = UNKNOWN
OBJECT_ID      = 
CENTER_NAME    = EARTH
REF_FRAME      = TEME
TIME_SYSTEM    = UTC
MEAN_ELEMENT_THEORY = SGP/SGP4

EPOCH          = 2026-03-22T02:21:54.835776
MEAN_MOTION    = 13.06083873
ECCENTRICITY   = .00354442
INCLINATION    = 90.3255
RA_OF_ASC_NODE = 14.5260
ARG_OF_PERICENTER = 352.8887
MEAN_ANOMALY   = 7.1731

EPHEMERIS_TYPE = 0
CLASSIFICATION_TYPE = U
NORAD_CAT_ID   = 270216
ELEMENT_SET_NO = 999
REV_AT_EPOCH   = 29720
BSTAR          = .39121229E-2
MEAN_MOTION_DOT = .1295E-4
MEAN_MOTION_DDOT = 0

CCSDS_OMM_VERS = 2.0
CREATION_DATE  = 
ORIGINATOR     = 

OBJECT_NAME    = UNKNOWN
OBJECT_ID      = 
CENTER_NAME    = EARTH
REF_FRAME      = TEME
TIME_SYSTEM    = UTC
MEAN_ELEMENT_THEORY = SGP/SGP4

EPOCH          = 2026-03-17T16:00:40.394880
MEAN_MOTION    = 12.56936720
ECCENTRICITY   = .00291766
INCLINATION    = 101.9428
RA_OF_ASC_NODE = 62.1768
ARG_OF_PERICENTER = 35.0123
MEAN_ANOMALY   = 325.2862

EPHEMERIS_TYPE = 0
CLASSIFICATION_TYPE = U
NORAD_CAT_ID   = 270219
ELEMENT_SET_NO = 999
REV_AT_EPOCH   = 28739
BSTAR          = .20920318E-3
MEAN_MOTION_DOT = -.12E-6
MEAN_MOTION_DDOT = 0

CCSDS_OMM_VERS = 2.0
CREATION_DATE  = 
ORIGINATOR     = 

OBJECT_NAME    = UNKNOWN
OBJECT_ID      = 
CENTER_NAME    = EARTH
REF_FRAME      = TEME
TIME_SYSTEM    = UTC
MEAN_ELEMENT_THEORY = SGP/SGP4

EPOCH          = 2026-03-24T02:53:37.737888
MEAN_MOTION    = 14.49215604
ECCENTRICITY   = .00313667
INCLINATION    = 81.2114
RA_OF_ASC_NODE = 27.0016
ARG_OF_PERICENTER = 347.7720
MEAN_ANOMALY   = 12.2707

EPHEMERIS_TYPE = 0
CLASSIFICATION_TYPE = U
NORAD_CAT_ID   = 270220
ELEMENT_SET_NO = 999
REV_AT_EPOCH   = 32643
BSTAR          = .29004974E-2
MEAN_MOTION_DOT = .11139E-3
MEAN_MOTION_DDOT = 0

CCSDS_OMM_VERS = 2.0
CREATION_DATE  = 
ORIGINATOR     = 

OBJECT_NAME    = UNKNOWN
OBJECT_ID      = 
CENTER_NAME    = EARTH
REF_FRAME      = TEME
TIME_SYSTEM    = UTC
MEAN_ELEMENT_THEORY = SGP/SGP4

EPOCH          = 2026-03-23T05:36:10.495584
MEAN_MOTION    = 11.85972808
ECCENTRICITY   = .10509009
INCLINATION    = 83.1555
RA_OF_ASC_NODE = 62.8677
ARG_OF_PERICENTER = 66.1833
MEAN_ANOMALY   = 304.5749

EPHEMERIS_TYPE = 0
CLASSIFICATION_TYPE = U
NORAD_CAT_ID   = 270221
ELEMENT_SET_NO = 999
REV_AT_EPOCH   = 27172
BSTAR          = .19052581E-2
MEAN_MOTION_DOT = .626E-5
MEAN_MOTION_DDOT = 0

CCSDS_OMM_VERS = 2.0
CREATION_DATE  = 
ORIGINATOR     = 

OBJECT_NAME    = UNKNOWN
OBJECT_ID      = 
CENTER_NAME    = EARTH
REF_FRAME      = TEME
TIME_SYSTEM    = UTC
MEAN_ELEMENT_THEORY = SGP/SGP4

EPOCH          = 2026-03-23T01:40:35.450400
MEAN_MOTION    = 12.95579941
ECCENTRICITY   = .00374444
INCLINATION    = 90.2531
RA_OF_ASC_NODE = 4.5138
ARG_OF_PERICENTER = 68.8727
MEAN_ANOMALY   = 291.6388

EPHEMERIS_TYPE = 0
CLASSIFICATION_TYPE = U
NORAD_CAT_ID   = 270222
ELEMENT_SET_NO = 999
REV_AT_EPOCH   = 29571
BSTAR          = .26451536E-2
MEAN_MOTION_DOT = .757E-5
MEAN_MOTION_DDOT = 0

CCSDS_OMM_VERS = 2.0
CREATION_DATE  = 
ORIGINATOR     = 

OBJECT_NAME    = UNKNOWN
OBJECT_ID      = 
CENTER_NAME    = EARTH
REF_FRAME      = TEME
TIME_SYSTEM    = UTC
MEAN_ELEMENT_THEORY = SGP/SGP4

EPOCH          = 2026-03-23T03:54:12.132288
MEAN_MOTION    = 13.40393289
ECCENTRICITY   = .05289761
INCLINATION    = 73.1439
RA_OF_ASC_NODE = 247.4130
ARG_OF_PERICENTER = 53.1051
MEAN_ANOMALY   = 311.7323

EPHEMERIS_TYPE = 0
CLASSIFICATION_TYPE = U
NORAD_CAT_ID   = 270224
ELEMENT_SET_NO = 999
REV_AT_EPOCH   = 30150
BSTAR          = .38965174E-2
MEAN_MOTION_DOT = .4852E-4
MEAN_MOTION_DDOT = 0

CCSDS_OMM_VERS = 2.0
CREATION_DATE  = 
ORIGINATOR     = 

OBJECT_NAME    = UNKNOWN
OBJECT_ID      = 
CENTER_NAME    = EARTH
REF_FRAME      = TEME
TIME_SYSTEM    = UTC
MEAN_ELEMENT_THEORY = SGP/SGP4

EPOCH          = 2026-03-15T12:24:58.098240
MEAN_MOTION    = 11.67014221
ECCENTRICITY   = .03975532
INCLINATION    = 101.2593
RA_OF_ASC_NODE = 165.0489
ARG_OF_PERICENTER = 37.3542
MEAN_ANOMALY   = 325.4435

EPHEMERIS_TYPE = 0
CLASSIFICATION_TYPE = U
NORAD_CAT_ID   = 270226
ELEMENT_SET_NO = 999
REV_AT_EPOCH   = 26589
BSTAR          = -.5558816E-3
MEAN_MOTION_DOT = -.68E-6
MEAN_MOTION_DDOT = 0

CCSDS_OMM_VERS = 2.0
CREATION_DATE  = 
ORIGINATOR     = 

OBJECT_NAME    = UNKNOWN
OBJECT_ID      = 
CENTER_NAME    = EARTH
REF_FRAME      = TEME
TIME_SYSTEM    = UTC
MEAN_ELEMENT_THEORY = SGP/SGP4

EPOCH          = 2026-03-23T12:45:23.062752
MEAN_MOTION    = 13.91235163
ECCENTRICITY   = .01418896
INCLINATION    = 98.9391
RA_OF_ASC_NODE = 6.0312
ARG_OF_PERICENTER = 131.0378
MEAN_ANOMALY   = 230.3147

EPHEMERIS_TYPE = 0
CLASSIFICATION_TYPE = U
NORAD_CAT_ID   = 270229
ELEMENT_SET_NO = 999
REV_AT_EPOCH   = 31601
BSTAR          = .31658338E-3
MEAN_MOTION_DOT = .392E-5
MEAN_MOTION_DDOT = 0

CCSDS_OMM_VERS = 2.0
CREATION_DATE  = 
ORIGINATOR     = 

OBJECT_NAME    = UNKNOWN
OBJECT_ID      = 
CENTER_NAME    = EARTH
REF_FRAME      = TEME
TIME_SYSTEM    = UTC
MEAN_ELEMENT_THEORY = SGP/SGP4

EPOCH          = 2026-02-24T03:58:03.711936
MEAN_MOTION    = 12.20961756
ECCENTRICITY   = .03216827
INCLINATION    = 103.0468
RA_OF_ASC_NODE = 28.2816
ARG_OF_PERICENTER = 301.1120
MEAN_ANOMALY   = 55.8739

EPHEMERIS_TYPE = 0
CLASSIFICATION_TYPE = U
NORAD_CAT_ID   = 270230
ELEMENT_SET_NO = 999
REV_AT_EPOCH   = 27207
BSTAR          = .18435701E-1
MEAN_MOTION_DOT = .2229E-4
MEAN_MOTION_DDOT = 0

CCSDS_OMM_VERS = 2.0
CREATION_DATE  = 
ORIGINATOR     = 

OBJECT_NAME    = UNKNOWN
OBJECT_ID      = 
CENTER_NAME    = EARTH
REF_FRAME      = TEME
TIME_SYSTEM    = UTC
MEAN_ELEMENT_THEORY = SGP/SGP4

EPOCH          = 2026-03-21T07:03:44.540928
MEAN_MOTION    = 12.92259241
ECCENTRICITY   = .06979422
INCLINATION    = 72.9693
RA_OF_ASC_NODE = 280.9608
ARG_OF_PERICENTER = 230.1116
MEAN_ANOMALY   = 123.6575

EPHEMERIS_TYPE = 0
CLASSIFICATION_TYPE = U
NORAD_CAT_ID   = 270232
ELEMENT_SET_NO = 999
REV_AT_EPOCH   = 29072
BSTAR          = .21944462E-2
MEAN_MOTION_DOT = .1763E-4
MEAN_MOTION_DDOT = 0

CCSDS_OMM_VERS = 2.0
CREATION_DATE  = 
ORIGINATOR     = 

OBJECT_NAME    = UNKNOWN
OBJECT_ID      = 
CENTER_NAME    = EARTH
REF_FRAME      = TEME
TIME_SYSTEM    = UTC
MEAN_ELEMENT_THEORY = SGP/SGP4

EPOCH          = 2026-03-24T06:11:17.942784
MEAN_MOTION    = 14.38507956
ECCENTRICITY   = .00333873
INCLINATION    = 98.6271
RA_OF_ASC_NODE = 89.2471
ARG_OF_PERICENTER = 67.2894
MEAN_ANOMALY   = 293.1816

EPHEMERIS_TYPE = 0
CLASSIFICATION_TYPE = U
NORAD_CAT_ID   = 270233
ELEMENT_SET_NO = 999
REV_AT_EPOCH   = 32308
BSTAR          = .15537539E-3
MEAN_MOTION_DOT = .433E-5
MEAN_MOTION_DDOT = 0

CCSDS_OMM_VERS = 2.0
CREATION_DATE  = 
ORIGINATOR     = 

OBJECT_NAME    = UNKNOWN
OBJECT_ID      = 
CENTER_NAME    = EARTH
REF_FRAME      = TEME
TIME_SYSTEM    = UTC
MEAN_ELEMENT_THEORY = SGP/SGP4

EPOCH          = 2026-03-22T16:08:26.997216
MEAN_MOTION    = 13.59277844
ECCENTRICITY   = .01442835
INCLINATION    = 82.9338
RA_OF_ASC_NODE = 54.8788
ARG_OF_PERICENTER = 165.5466
MEAN_ANOMALY   = 194.9877

EPHEMERIS_TYPE = 0
CLASSIFICATION_TYPE = U
NORAD_CAT_ID   = 270235
ELEMENT_SET_NO = 999
REV_AT_EPOCH   = 30981
BSTAR          = .9851245E-3
MEAN_MOTION_DOT = .792E-5
MEAN_MOTION_DDOT = 0

CCSDS_OMM_VERS = 2.0
CREATION_DATE  = 
ORIGINATOR     = 

OBJECT_NAME    = UNKNOWN
OBJECT_ID      = 
CENTER_NAME    = EARTH
REF_FRAME      = TEME
TIME_SYSTEM    = UTC
MEAN_ELEMENT_THEORY = SGP/SGP4

EPOCH          = 2026-03-23T12:37:49.625184
MEAN_MOTION    = 12.95524682
ECCENTRICITY   = .00315659
INCLINATION    = 90.2419
RA_OF_ASC_NODE = 1.6138
ARG_OF_PERICENTER = 34.1857
MEAN_ANOMALY   = 326.1286

EPHEMERIS_TYPE = 0
CLASSIFICATION_TYPE = U
NORAD_CAT_ID   = 270236
ELEMENT_SET_NO = 999
REV_AT_EPOCH   = 29127
BSTAR          = .15748837E-2
MEAN_MOTION_DOT = .453E-5
MEAN_MOTION_DDOT = 0

